{
  "norad_id": 58769,
  "name": "STARLINK-31146",
  "history": [
    {
      "epoch": "2026-03-28T20:13:12.801792",
      "apogee_km": 476.1215805005877,
      "perigee_km": 474.2458266240228,
      "latitude_deg": 47.09711267575792,
      "longitude_deg": 137.78089087968692,
      "semi_major_axis_km": 6853.3207035623045,
      "eccentricity": 0.00013685,
      "inclination_deg": 53.1613,
      "raan_deg": 284.6437,
      "arg_perigee_deg": 97.696,
      "mean_anomaly_deg": 262.4196,
      "mean_motion_rev_day": 15.30210505
    }
  ]
}